{
    "links": {
        "self": "http://www.neowsapp.com/rest/v1/neo/3440789?api_key=iIulBulltgU6a56xZRHN4H3l9WmuAYTsLGpBGhQ2"
    },
    "id": "3440789",
    "neo_reference_id": "3440789",
    "name": "(2008 WF96)",
    "designation": "2008 WF96",
    "nasa_jpl_url": "http://ssd.jpl.nasa.gov/sbdb.cgi?sstr=3440789",
    "absolute_magnitude_h": 23.8,
    "estimated_diameter": {
        "kilometers": {
            "estimated_diameter_min": 0.046190746,
            "estimated_diameter_max": 0.1032856481
        },
        "meters": {
            "estimated_diameter_min": 46.1907460282,
            "estimated_diameter_max": 103.2856480504
        },
        "miles": {
            "estimated_diameter_min": 0.0287015901,
            "estimated_diameter_max": 0.0641787064
        },
        "feet": {
            "estimated_diameter_min": 151.544447199,
            "estimated_diameter_max": 338.8636855496
        }
    },
    "is_potentially_hazardous_asteroid": false,
    "close_approach_data": [
        {
            "close_approach_date": "2008-11-20",
            "close_approach_date_full": "2008-Nov-20 14:09",
            "epoch_date_close_approach": 1227190140000,
            "relative_velocity": {
                "kilometers_per_second": "8.0042812644",
                "kilometers_per_hour": "28815.412551685",
                "miles_per_hour": "17904.7767602401"
            },
            "miss_distance": {
                "astronomical": "0.0841355406",
                "lunar": "32.7287252934",
                "kilometers": "12586497.665058522",
                "miles": "7820886.9897187236"
            },
            "orbiting_body": "Earth"
        }
    ],
    "orbital_data": {
        "orbit_id": "7",
        "orbit_determination_date": "2017-04-06 09:02:01",
        "first_observation_date": "2008-11-30",
        "last_observation_date": "2008-12-03",
        "data_arc_in_days": 3,
        "observations_used": 21,
        "orbit_uncertainty": "9",
        "minimum_orbit_intersection": ".0551117",
        "jupiter_tisserand_invariant": "3.223",
        "epoch_osculation": "2454802.5",
        "eccentricity": ".5796165672485093",
        "semi_major_axis": "2.478759077868177",
        "inclination": "1.823653117359805",
        "ascending_node_longitude": "266.9878476429644",
        "orbital_period": "1425.443156998119",
        "perihelion_distance": "1.042029250118144",
        "perihelion_argument": "135.334491665721",
        "aphelion_distance": "3.915488905618211",
        "perihelion_time": "2454779.609465267156",
        "mean_anomaly": "5.781074091497226",
        "mean_motion": ".2525530381429829",
        "equinox": "J2000",
        "orbit_class": {
            "orbit_class_type": "AMO",
            "orbit_class_description": "Near-Earth asteroid orbits similar to that of 1221 Amor",
            "orbit_class_range": "1.017 AU < q (perihelion) < 1.3 AU"
        }
    },
    "is_sentry_object": false
}